start=new Date('2022-10-15T00:00:00.000Z').valueOf();
sats=[{"OBJECT_ID":"2021-115T","MEAN_ANOMALY":"322.9225","CLASSIFICATION_TYPE":"U","DECAY_DATE":null,"PERIOD":"95.438","SEMIMAJOR_AXIS":"6917.883","ELEMENT_SET_NO":"999","MEAN_MOTION_DDOT":"0.0000000000000","COUNTRY_CODE":"US","EPHEMERIS_TYPE":"0","EPOCH":"2022-10-14T11:34:40.884096","REV_AT_EPOCH":"4800","OBJECT_NAME":"STARLINK-3244","TLE_LINE2":"2 49741  53.2167 325.5992 0001956  37.1903 322.9225 15.08839074 48002","NORAD_CAT_ID":"49741","MEAN_MOTION":"15.08839074","INCLINATION":"53.2167","ARG_OF_PERICENTER":"37.1903","FILE":"3611991","MEAN_MOTION_DOT":"-0.00000426","PERIAPSIS":"538.395","REF_FRAME":"TEME","MEAN_ELEMENT_THEORY":"SGP4","TLE_LINE1":"1 49741U 21115T   22287.48241764 -.00000426  00000-0 -86292-5 0  9998","LAUNCH_DATE":"2021-12-02","BSTAR":"-0.00000862920000","RCS_SIZE":"LARGE","TIME_SYSTEM":"UTC","CENTER_NAME":"EARTH","SITE":"AFETR","OBJECT_TYPE":"PAYLOAD","APOAPSIS":"541.101","RA_OF_ASC_NODE":"325.5992","GP_ID":"215103585","ECCENTRICITY":"0.00019560"},{"MEAN_ANOMALY":"325.8462","OBJECT_ID":"2021-115U","CLASSIFICATION_TYPE":"U","PERIOD":"95.437","DECAY_DATE":null,"SEMIMAJOR_AXIS":"6917.831","ELEMENT_SET_NO":"999","MEAN_MOTION_DDOT":"0.0000000000000","EPOCH":"2022-10-14T19:52:48.016128","EPHEMERIS_TYPE":"0","COUNTRY_CODE":"US","OBJECT_NAME":"STARLINK-3202","REV_AT_EPOCH":"4805","TLE_LINE2":"2 49742  53.2158 324.0562 0002062  34.2663 325.8462 15.08856066 48050","NORAD_CAT_ID":"49742","MEAN_MOTION":"15.08856066","FILE":"3612869","INCLINATION":"53.2158","ARG_OF_PERICENTER":"34.2663","MEAN_MOTION_DOT":"0.00007069","PERIAPSIS":"538.270","REF_FRAME":"TEME","MEAN_ELEMENT_THEORY":"SGP4","LAUNCH_DATE":"2021-12-02","TLE_LINE1":"1 49742U 21115U   22287.82833352  .00007069  00000-0  46162-3 0  9995","BSTAR":"0.00046162000000","TIME_SYSTEM":"UTC","RCS_SIZE":"LARGE","CENTER_NAME":"EARTH","OBJECT_TYPE":"PAYLOAD","SITE":"AFETR","RA_OF_ASC_NODE":"324.0562","GP_ID":"215144777","APOAPSIS":"541.123","ECCENTRICITY":"0.00020620"},{"ECCENTRICITY":"0.00021170","SITE":"AFETR","OBJECT_TYPE":"PAYLOAD","APOAPSIS":"541.197","GP_ID":"215145528","RA_OF_ASC_NODE":"324.9972","RCS_SIZE":"LARGE","TIME_SYSTEM":"UTC","CENTER_NAME":"EARTH","BSTAR":"0.00021317000000","MEAN_ELEMENT_THEORY":"SGP4","TLE_LINE1":"1 49743U 21115V   22287.61857750  .00003106  00000-0  21317-3 0  9994","LAUNCH_DATE":"2021-12-02","PERIAPSIS":"538.268","REF_FRAME":"TEME","ARG_OF_PERICENTER":"34.9705","INCLINATION":"53.2171","FILE":"3612869","MEAN_MOTION_DOT":"0.00003106","NORAD_CAT_ID":"49743","MEAN_MOTION":"15.08844351","OBJECT_NAME":"STARLINK-3239","REV_AT_EPOCH":"4802","TLE_LINE2":"2 49743  53.2171 324.9972 0002117  34.9705 325.1426 15.08844351 48029","COUNTRY_CODE":"US","EPOCH":"2022-10-14T14:50:45.096000","EPHEMERIS_TYPE":"0","SEMIMAJOR_AXIS":"6917.867","ELEMENT_SET_NO":"999","MEAN_MOTION_DDOT":"0.0000000000000","DECAY_DATE":null,"PERIOD":"95.437","CLASSIFICATION_TYPE":"U","MEAN_ANOMALY":"325.1426","OBJECT_ID":"2021-115V"},{"REV_AT_EPOCH":"4805","OBJECT_NAME":"STARLINK-3231","TLE_LINE2":"2 49744  53.2161 324.0168 0001933  44.4773 315.6374 15.08852911 48053","EPHEMERIS_TYPE":"0","EPOCH":"2022-10-14T20:03:23.967648","COUNTRY_CODE":"US","FILE":"3612869","ARG_OF_PERICENTER":"44.4773","INCLINATION":"53.2161","MEAN_MOTION_DOT":"0.00004779","NORAD_CAT_ID":"49744","MEAN_MOTION":"15.08852911","CLASSIFICATION_TYPE":"U","MEAN_ANOMALY":"315.6374","OBJECT_ID":"2021-115W","SEMIMAJOR_AXIS":"6917.841","MEAN_MOTION_DDOT":"0.0000000000000","ELEMENT_SET_NO":"999","PERIOD":"95.437","DECAY_DATE":null,"TIME_SYSTEM":"UTC","RCS_SIZE":"LARGE","CENTER_NAME":"EARTH","BSTAR":"0.00031803000000","ECCENTRICITY":"0.00019330","OBJECT_TYPE":"PAYLOAD","SITE":"AFETR","GP_ID":"215144276","RA_OF_ASC_NODE":"324.0168","APOAPSIS":"541.043","PERIAPSIS":"538.369","REF_FRAME":"TEME","MEAN_ELEMENT_THEORY":"SGP4","LAUNCH_DATE":"2021-12-02","TLE_LINE1":"1 49744U 21115W   22287.83569407  .00004779  00000-0  31803-3 0  9996"},{"MEAN_MOTION":"15.08849476","NORAD_CAT_ID":"49745","MEAN_MOTION_DOT":"0.00002138","ARG_OF_PERICENTER":"36.0334","INCLINATION":"53.2172","FILE":"3612869","COUNTRY_CODE":"US","EPHEMERIS_TYPE":"0","EPOCH":"2022-10-14T19:47:29.999328","TLE_LINE2":"2 49745  53.2172 324.0781 0002060  36.0334 324.0797 15.08849476 48054","REV_AT_EPOCH":"4805","OBJECT_NAME":"STARLINK-3241","DECAY_DATE":null,"PERIOD":"95.437","ELEMENT_SET_NO":"999","MEAN_MOTION_DDOT":"0.0000000000000","SEMIMAJOR_AXIS":"6917.851","MEAN_ANOMALY":"324.0797","OBJECT_ID":"2021-115X","CLASSIFICATION_TYPE":"U","APOAPSIS":"541.142","RA_OF_ASC_NODE":"324.0781","GP_ID":"215144026","SITE":"AFETR","OBJECT_TYPE":"PAYLOAD","ECCENTRICITY":"0.00020600","BSTAR":"0.00015237000000","CENTER_NAME":"EARTH","RCS_SIZE":"LARGE","TIME_SYSTEM":"UTC","TLE_LINE1":"1 49745U 21115X   22287.82465277  .00002138  00000-0  15237-3 0  9996","LAUNCH_DATE":"2021-12-02","MEAN_ELEMENT_THEORY":"SGP4","REF_FRAME":"TEME","PERIAPSIS":"538.291"},{"INCLINATION":"53.2160","ARG_OF_PERICENTER":"42.4994","FILE":"3611991","MEAN_MOTION_DOT":"-0.00000155","NORAD_CAT_ID":"49746","MEAN_MOTION":"15.08846490","REV_AT_EPOCH":"4800","OBJECT_NAME":"STARLINK-3233","TLE_LINE2":"2 49746  53.2160 325.4648 0002134  42.4994 317.6163 15.08846490 48007","COUNTRY_CODE":"US","EPOCH":"2022-10-14T12:17:04.240032","EPHEMERIS_TYPE":"0","SEMIMAJOR_AXIS":"6917.861","ELEMENT_SET_NO":"999","MEAN_MOTION_DDOT":"0.0000000000000","DECAY_DATE":null,"PERIOD":"95.437","CLASSIFICATION_TYPE":"U","MEAN_ANOMALY":"317.6163","OBJECT_ID":"2021-115Y","ECCENTRICITY":"0.00021340","SITE":"AFETR","OBJECT_TYPE":"PAYLOAD","APOAPSIS":"541.202","GP_ID":"215101834","RA_OF_ASC_NODE":"325.4648","RCS_SIZE":"MEDIUM","TIME_SYSTEM":"UTC","CENTER_NAME":"EARTH","BSTAR":"0.00000837340000","MEAN_ELEMENT_THEORY":"SGP4","TLE_LINE1":"1 49746U 21115Y   22287.51185463 -.00000155  00000-0  83734-5 0  9996","LAUNCH_DATE":"2021-12-02","PERIAPSIS":"538.249","REF_FRAME":"TEME"},{"MEAN_MOTION":"15.08846445","NORAD_CAT_ID":"49747","MEAN_MOTION_DOT":"0.00004677","FILE":"3612869","ARG_OF_PERICENTER":"34.6073","INCLINATION":"53.2169","EPHEMERIS_TYPE":"0","EPOCH":"2022-10-14T19:58:06.088224","COUNTRY_CODE":"US","TLE_LINE2":"2 49747  53.2169 324.0322 0002386  34.6073 325.5074 15.08846445 48055","OBJECT_NAME":"STARLINK-3247","REV_AT_EPOCH":"4805","PERIOD":"95.437","DECAY_DATE":null,"MEAN_MOTION_DDOT":"0.0000000000000","ELEMENT_SET_NO":"999","SEMIMAJOR_AXIS":"6917.861","MEAN_ANOMALY":"325.5074","OBJECT_ID":"2021-115Z","CLASSIFICATION_TYPE":"U","GP_ID":"215145028","RA_OF_ASC_NODE":"324.0322","APOAPSIS":"541.376","OBJECT_TYPE":"PAYLOAD","SITE":"AFETR","ECCENTRICITY":"0.00023860","BSTAR":"0.00031172000000","CENTER_NAME":"EARTH","TIME_SYSTEM":"UTC","RCS_SIZE":"LARGE","LAUNCH_DATE":"2021-12-02","TLE_LINE1":"1 49747U 21115Z   22287.83201491  .00004677  00000-0  31172-3 0  9991","MEAN_ELEMENT_THEORY":"SGP4","REF_FRAME":"TEME","PERIAPSIS":"538.075"},{"BSTAR":"0.00014360000000","RCS_SIZE":"LARGE","TIME_SYSTEM":"UTC","CENTER_NAME":"EARTH","SITE":"AFETR","OBJECT_TYPE":"PAYLOAD","APOAPSIS":"541.351","GP_ID":"215103336","RA_OF_ASC_NODE":"326.0523","ECCENTRICITY":"0.00023180","PERIAPSIS":"538.144","REF_FRAME":"TEME","MEAN_ELEMENT_THEORY":"SGP4","TLE_LINE1":"1 49748U 21115AA  22287.38674426  .00001998  00000-0  14360-3 0  9997","LAUNCH_DATE":"2021-12-02","COUNTRY_CODE":"US","EPHEMERIS_TYPE":"0","EPOCH":"2022-10-14T09:16:54.704064","OBJECT_NAME":"STARLINK-3248","REV_AT_EPOCH":"4799","TLE_LINE2":"2 49748  53.2167 326.0523 0002318  42.1698 317.9472 15.08839174 47991","NORAD_CAT_ID":"49748","MEAN_MOTION":"15.08839174","INCLINATION":"53.2167","ARG_OF_PERICENTER":"42.1698","FILE":"3611991","MEAN_MOTION_DOT":"0.00001998","OBJECT_ID":"2021-115AA","MEAN_ANOMALY":"317.9472","CLASSIFICATION_TYPE":"U","DECAY_DATE":null,"PERIOD":"95.438","SEMIMAJOR_AXIS":"6917.883","ELEMENT_SET_NO":"999","MEAN_MOTION_DDOT":"0.0000000000000"},{"TLE_LINE1":"1 49749U 21115AB  22287.83937287  .00001692  00000-0  12435-3 0  9997","LAUNCH_DATE":"2021-12-02","MEAN_ELEMENT_THEORY":"SGP4","REF_FRAME":"TEME","PERIAPSIS":"538.052","ECCENTRICITY":"0.00023480","APOAPSIS":"541.300","RA_OF_ASC_NODE":"324.0023","GP_ID":"215144527","SITE":"AFETR","OBJECT_TYPE":"PAYLOAD","CENTER_NAME":"EARTH","RCS_SIZE":"LARGE","TIME_SYSTEM":"UTC","BSTAR":"0.00012435000000","ELEMENT_SET_NO":"999","MEAN_MOTION_DDOT":"0.0000000000000","SEMIMAJOR_AXIS":"6917.811","DECAY_DATE":null,"PERIOD":"95.436","CLASSIFICATION_TYPE":"U","OBJECT_ID":"2021-115AB","MEAN_ANOMALY":"324.0639","MEAN_MOTION_DOT":"0.00001692","INCLINATION":"53.2169","ARG_OF_PERICENTER":"36.0511","FILE":"3612869","MEAN_MOTION":"15.08862710","NORAD_CAT_ID":"49749","TLE_LINE2":"2 49749  53.2169 324.0023 0002348  36.0511 324.0639 15.08862710 48050","OBJECT_NAME":"STARLINK-3250","REV_AT_EPOCH":"4805","COUNTRY_CODE":"US","EPOCH":"2022-10-14T20:08:41.815968","EPHEMERIS_TYPE":"0"},{"PERIAPSIS":"538.348","REF_FRAME":"TEME","MEAN_ELEMENT_THEORY":"SGP4","LAUNCH_DATE":"2021-12-02","TLE_LINE1":"1 49750U 21115AC  22287.39410334  .00000947  00000-0  77627-4 0  9996","BSTAR":"0.00007762700000","TIME_SYSTEM":"UTC","RCS_SIZE":"LARGE","CENTER_NAME":"EARTH","OBJECT_TYPE":"PAYLOAD","SITE":"AFETR","RA_OF_ASC_NODE":"326.0106","GP_ID":"215102335","APOAPSIS":"541.151","ECCENTRICITY":"0.00020260","MEAN_ANOMALY":"317.0098","OBJECT_ID":"2021-115AC","CLASSIFICATION_TYPE":"U","PERIOD":"95.438","DECAY_DATE":null,"SEMIMAJOR_AXIS":"6917.884","ELEMENT_SET_NO":"999","MEAN_MOTION_DDOT":"0.0000000000000","EPOCH":"2022-10-14T09:27:30.528576","EPHEMERIS_TYPE":"0","COUNTRY_CODE":"US","REV_AT_EPOCH":"4799","OBJECT_NAME":"STARLINK-3236","TLE_LINE2":"2 49750  53.2172 326.0106 0002026  43.1053 317.0098 15.08838688 47993","NORAD_CAT_ID":"49750","MEAN_MOTION":"15.08838688","FILE":"3611991","ARG_OF_PERICENTER":"43.1053","INCLINATION":"53.2172","MEAN_MOTION_DOT":"0.00000947"}];
